{
  "norad_id": 59788,
  "name": "STARLINK-31888",
  "history": [
    {
      "epoch": "2026-03-28T18:02:52.196928",
      "apogee_km": 483.7308692696588,
      "perigee_km": 482.4096751973175,
      "latitude_deg": 31.584128097790064,
      "longitude_deg": -129.0086700799875,
      "semi_major_axis_km": 6861.207272233488,
      "eccentricity": 9.628e-05,
      "inclination_deg": 43.0044,
      "raan_deg": 100.9959,
      "arg_perigee_deg": 275.2951,
      "mean_anomaly_deg": 84.779,
      "mean_motion_rev_day": 15.27572928
    }
  ]
}